STARLINK-2388           
1 47807U 21018W   26068.70635189  .00000794  00000+0  38947-4 0  9993
2 47807  53.1597 216.6328 0001071  96.2177 263.8945 15.30196777277084
MESON-1                 
1 59131U 24043AK  26068.90019075  .00008544  00000+0  29748-3 0  9998
2 59131  97.5469 205.2839 0009545 227.1432 132.9007 15.29893494111890
